NORAD_CAT_ID,OBJECT_NAME,OBJECT_TYPE,EPOCH,MEAN_MOTION,ECCENTRICITY,INCLINATION,RA_OF_ASC_NODE,ARG_OF_PERICENTER,MEAN_ANOMALY,BSTAR,MEAN_MOTION_DOT,MEAN_MOTION_DDOT,TLE_LINE0,TLE_LINE1,TLE_LINE2,SEMIMAJOR_AXIS,PERIOD,APOGEE,PERIGEE,DECAYED
55439.0,STARLINK-5634,PAYLOAD,2024-04-24 21:53:46,14.98325677,0.0002684,70.001,28.5809,269.9209,90.1643,0.00011435,1.272e-05,0.0,0 STARLINK-5634,1 55439U 23014BA  24115.91234386  .00001272  00000-0  11435-3 0  9994,2 55439  70.0010  28.5809 0002684 269.9209  90.1643 14.98325677 68644,6950.206,96.107,573.937,570.206,0.0
55439.0,STARLINK-5634,PAYLOAD,2024-04-25 04:18:18,14.98326483,0.0002598,70.0016,27.908,270.4758,89.6104,8.1956e-05,8.85e-06,0.0,0 STARLINK-5634,1 55439U 23014BA  24116.17938447  .00000885  00000-0  81956-4 0  9997,2 55439  70.0016  27.9080 0002598 270.4758  89.6104 14.98326483 68689,6950.204,96.107,573.874,570.263,0.0
55439.0,STARLINK-5634,PAYLOAD,2024-04-25 20:19:43,14.98274705,0.0003306,70.0012,26.2262,277.5832,82.4951,-0.00066273,-7.98e-05,0.0,0 STARLINK-5634,1 55439U 23014BA  24116.84703565 -.00007980  00000-0 -66273-3 0  9991,2 55439  70.0012  26.2262 0003306 277.5832  82.4951 14.98274705 67845,6950.364,96.111,574.527,569.931,0.0
55439.0,STARLINK-5634,PAYLOAD,2024-04-25 21:55:52,14.98274861,0.0003316,70.0008,26.0564,280.1279,79.9505,-0.00067359,-8.11e-05,0.0,0 STARLINK-5634,1 55439U 23014BA  24116.91379641 -.00008110  00000-0 -67359-3 0  9995,2 55439  70.0008  26.0564 0003316 280.1279  79.9505 14.98274861 68793,6950.363,96.111,574.533,569.924,0.0
55439.0,STARLINK-5634,PAYLOAD,2024-04-26 04:20:20,14.9833259,0.0002764,70.0014,25.3831,292.7323,67.3544,2.3792e-05,1.91e-06,0.0,0 STARLINK-5634,1 55439U 23014BA  24117.18079254  .00000191  00000-0  23792-4 0  9995,2 55439  70.0014  25.3831 0002764 292.7323  67.3544 14.98332590 67892,6950.185,96.107,573.971,570.129,0.0
55439.0,STARLINK-5634,PAYLOAD,2024-04-26 10:44:51,14.98343147,0.0003061,70.0002,24.7071,271.2201,88.8607,1.6587e-05,1.05e-06,0.0,0 STARLINK-5634,1 55439U 23014BA  24117.44782154  .00000105  00000-0  16587-4 0  9993,2 55439  70.0002  24.7071 0003061 271.2201  88.8607 14.98343147 67939,6950.152,96.106,574.145,569.89,0.0
55439.0,STARLINK-5634,PAYLOAD,2024-04-26 21:57:47,14.98342011,0.0003331,69.9995,23.5296,275.066,85.0118,0.00030953,3.603e-05,0.0,0 STARLINK-5634,1 55439U 23014BA  24117.91513598  .00003603  00000-0  30953-3 0  9997,2 55439  69.9995  23.5296 0003331 275.0660  85.0118 14.98342011 68941,6950.156,96.106,574.336,569.706,0.0
55439.0,STARLINK-5634,PAYLOAD,2024-04-27 04:22:18,14.98357759,0.0002617,70.0011,22.8565,268.3255,91.7604,0.00045442,5.337e-05,0.0,0 STARLINK-5634,1 55439U 23014BA  24118.18216151  .00005337  00000-0  45442-3 0  9997,2 55439  70.0011  22.8565 0002617 268.3255  91.7604 14.98357759 68045,6950.107,96.105,573.791,570.153,0.0
55439.0,STARLINK-5634,PAYLOAD,2024-04-27 10:46:53,14.98337033,0.0001455,70.0016,22.1807,308.1032,51.9995,0.0001136,1.263e-05,0.0,0 STARLINK-5634,1 55439U 23014BA  24118.44922596  .00001263  00000-0  11360-3 0  9999,2 55439  70.0016  22.1807 0001455 308.1032  51.9995 14.98337033 68085,6950.171,96.107,573.047,571.025,0.0
55439.0,STARLINK-5634,PAYLOAD,2024-04-27 20:23:42,14.98294555,0.0002726,70.0022,21.1783,267.6085,92.4762,0.00059195,6.971e-05,0.0,0 STARLINK-5634,1 55439U 23014BA  24118.84979584  .00006971  00000-0  59195-3 0  9991,2 55439  70.0022  21.1783 0002726 267.6085  92.4762 14.98294555 68143,6950.303,96.109,574.062,570.273,0.0
55439.0,STARLINK-5634,PAYLOAD,2024-04-27 21:59:50,14.98294816,0.000292,70.0016,21.01,272.6546,87.4279,0.00054496,6.409e-05,0.0,0 STARLINK-5634,1 55439U 23014BA  24118.91655779  .00006409  00000-0  54496-3 0  9991,2 55439  70.0016  21.0100 0002920 272.6546  87.4279 14.98294816 69094,6950.302,96.109,574.196,570.137,0.0
55439.0,STARLINK-5634,PAYLOAD,2024-04-28 10:48:54,14.98332256,0.0003138,70.0,19.6593,270.6677,89.4122,-5.8544e-05,-7.92e-06,0.0,0 STARLINK-5634,1 55439U 23014BA  24119.45062971 -.00000792  00000-0 -58544-4 0  9997,2 55439  70.0000  19.6593 0003138 270.6677  89.4122 14.98332256 68236,6950.186,96.107,574.232,569.87,0.0
55439.0,STARLINK-5634,PAYLOAD,2024-04-28 22:01:50,14.98339702,0.0002916,70.0007,18.4812,271.8208,88.2617,-0.00013599,-1.716e-05,0.0,0 STARLINK-5634,1 55439U 23014BA  24119.91794450 -.00001716  00000-0 -13599-3 0  9999,2 55439  70.0007  18.4812 0002916 271.8208  88.2617 14.98339702 69241,6950.163,96.106,574.055,570.001,0.0
55439.0,STARLINK-5634,PAYLOAD,2024-04-29 02:50:14,14.98343955,0.0003006,70.0006,17.9762,273.0633,87.0182,-0.00010824,-1.385e-05,0.0,0 STARLINK-5634,1 55439U 23014BA  24120.11821977 -.00001385  00000-0 -10824-3 0  9998,2 55439  70.0006  17.9762 0003006 273.0633  87.0182 14.98343955 68333,6950.15,96.106,574.104,569.926,0.0
55439.0,STARLINK-5634,PAYLOAD,2024-04-29 10:50:54,14.98346939,0.0002959,70.0003,17.1334,269.9429,90.1391,-0.00019078,-2.37e-05,0.0,0 STARLINK-5634,1 55439U 23014BA  24120.45201570 -.00002370  00000-0 -19078-3 0  9991,2 55439  70.0003  17.1334 0002959 269.9429  90.1391 14.98346939 69322,6950.141,96.106,574.062,569.949,0.0
55439.0,STARLINK-5634,PAYLOAD,2024-04-29 20:27:43,14.98316483,0.000308,70.0002,16.1227,272.6701,87.4105,0.00048756,5.727e-05,0.0,0 STARLINK-5634,1 55439U 23014BA  24120.85258472  .00005727  00000-0  48756-3 0  9990,2 55439  70.0002  16.1227 0003080 272.6701  87.4105 14.98316483 68446,6950.235,96.108,574.24,569.959,0.0
55439.0,STARLINK-5634,PAYLOAD,2024-04-29 22:03:51,14.98320237,0.0003097,70.0003,15.9543,272.9558,87.1247,0.00043299,5.076e-05,0.0,0 STARLINK-5634,1 55439U 23014BA  24120.91934388  .00005076  00000-0  43299-3 0  9998,2 55439  70.0003  15.9543 0003097 272.9558  87.1247 14.98320237 69397,6950.223,96.108,574.241,569.936,0.0
55439.0,STARLINK-5634,PAYLOAD,2024-04-30 02:52:15,14.98333025,0.0003124,70.0004,15.4499,272.7603,87.3199,0.00024938,2.884e-05,0.0,0 STARLINK-5634,1 55439U 23014BA  24121.11961851  .00002884  00000-0  24938-3 0  9999,2 55439  70.0004  15.4499 0003124 272.7603  87.3199 14.98333025 68489,6950.184,96.107,574.22,569.877,0.0
55439.0,STARLINK-5634,PAYLOAD,2024-04-30 10:52:55,14.98337381,0.0003131,70.0007,14.6083,273.0008,87.0793,3.9668e-05,3.8e-06,0.0,0 STARLINK-5634,1 55439U 23014BA  24121.45341813  .00000380  00000-0  39668-4 0  9992,2 55439  70.0007  14.6083 0003131 273.0008  87.0793 14.98337381 69479,6950.17,96.107,574.211,569.859,0.0
55439.0,STARLINK-5634,PAYLOAD,2024-04-30 20:29:44,14.98331668,0.0003032,70.0008,13.5984,273.0655,87.0157,0.0001122,1.246e-05,0.0,0 STARLINK-5634,1 55439U 23014BA  24121.85398201  .00001246  00000-0  11220-3 0  9994,2 55439  70.0008  13.5984 0003032 273.0655  87.0157 14.98331668 68594,6950.188,96.107,574.16,569.945,0.0
55439.0,STARLINK-5634,PAYLOAD,2024-05-01 02:54:15,14.98336088,0.0003033,70.0008,12.9251,272.9124,87.1688,0.00011691,1.302e-05,0.0,0 STARLINK-5634,1 55439U 23014BA  24122.12101797  .00001302  00000-0  11691-3 0  9992,2 55439  70.0008  12.9251 0003033 272.9124  87.1688 14.98336088 69574,6950.174,96.107,574.147,569.931,0.0
55439.0,STARLINK-5634,PAYLOAD,2024-05-02 02:56:16,14.98341721,0.0003026,70.0007,10.4005,272.7376,87.3437,9.8917e-05,1.088e-05,0.0,0 STARLINK-5634,1 55439U 23014BA  24123.12240919  .00001088  00000-0  98917-4 0  9991,2 55439  70.0007  10.4005 0003026 272.7376  87.3437 14.98341721 68788,6950.157,96.106,574.125,569.919,0.0
55439.0,STARLINK-5634,PAYLOAD,2024-05-02 09:20:48,14.98334767,0.0003,70.001,9.7272,273.2859,86.7956,6.7564e-05,7.13e-06,0.0,0 STARLINK-5634,1 55439U 23014BA  24123.38945324  .00000713  00000-0  67564-4 0  9999,2 55439  70.0010   9.7272 0003000 273.2859  86.7956 14.98334767 68829,6950.178,96.107,574.128,569.958,0.0
55439.0,STARLINK-5634,PAYLOAD,2024-05-02 20:33:46,14.98319871,0.0002715,70.0005,8.5489,248.0111,112.076,-5.8135e-05,-7.86e-06,0.0,0 STARLINK-5634,1 55439U 23014BA  24123.85679016 -.00000786  00000-0 -58135-4 0  9999,2 55439  70.0005   8.5489 0002715 248.0111 112.0760 14.98319871 68895,6950.224,96.108,573.976,570.202,0.0
55439.0,STARLINK-5634,PAYLOAD,2024-05-03 09:22:50,14.98329359,0.0003055,69.9998,7.202,269.7752,90.3057,2.629e-05,2.21e-06,0.0,0 STARLINK-5634,1 55439U 23014BA  24124.39086620  .00000221  00000-0  26290-4 0  9991,2 55439  69.9998   7.2020 0003055 269.7752  90.3057 14.98329359 68977,6950.195,96.107,574.183,569.937,0.0
55439.0,STARLINK-5634,PAYLOAD,2024-05-03 22:11:55,14.98335995,0.000335,70.001,5.8549,269.5342,90.5433,0.00030581,3.558e-05,0.0,0 STARLINK-5634,1 55439U 23014BA  24124.92494223  .00003558  00000-0  30581-3 0  9995,2 55439  70.0010   5.8549 0003350 269.5342  90.5433 14.98335995 69992,6950.174,96.107,574.368,569.711,0.0
55439.0,STARLINK-5634,PAYLOAD,2024-05-04 09:24:51,14.98340459,0.0003219,70.0016,4.6765,269.0686,91.0104,0.00072429,8.562e-05,0.0,0 STARLINK-5634,1 55439U 23014BA  24125.39226511  .00008562  00000-0  72429-3 0  9997,2 55439  70.0016   4.6765 0003219 269.0686  91.0104 14.98340459 69122,6950.161,96.106,574.263,569.788,0.0
55439.0,STARLINK-5634,PAYLOAD,2024-05-05 01:26:11,14.98355228,0.0003146,70.0018,2.9933,268.266,91.8138,0.00076537,9.057e-05,0.0,0 STARLINK-5634,1 55439U 23014BA  24126.05985601  .00009057  00000-0  76537-3 0  9997,2 55439  70.0018   2.9933 0003146 268.2660  91.8138 14.98355228 70165,6950.115,96.105,574.166,569.793,0.0
55439.0,STARLINK-5634,PAYLOAD,2024-05-05 20:39:48,14.98343553,0.0003036,70.0016,0.9741,269.0835,90.9976,0.00012724,1.426e-05,0.0,0 STARLINK-5634,1 55439U 23014BA  24126.86097277  .00001426  00000-0  12724-3 0  9999,2 55439  70.0016   0.9741 0003036 269.0835  90.9976 14.98343553 69345,6950.151,96.106,574.126,569.906,0.0
55439.0,STARLINK-5634,PAYLOAD,2024-05-05 22:15:56,14.98343874,0.0003015,70.0013,0.8063,270.1061,89.9753,0.00013551,1.525e-05,0.0,0 STARLINK-5634,1 55439U 23014BA  24126.92773302  .00001525  00000-0  13551-3 0  9995,2 55439  70.0013   0.8063 0003015 270.1061  89.9753 14.98343874 70292,6950.15,96.106,574.11,569.92,0.0
